INMARSAT 4-F2 (SOUTHPA*)
1 28899U 05044A   26115.78030876 -.00000271  00000+0  00000+0 0  9992
2 28899   5.0292  43.7580 0002703 347.7503 246.6499  1.00272238 74998
GSAT-8 (GAGAN/PRN 127)  
1 37605U 11022A   26115.86319929  .00000073  00000+0  00000+0 0  9997
2 37605   1.9978  82.4264 0004848 225.9609 271.3148  1.00271626 52693
LUCH 5A (SDCM/PRN 140)  
1 37951U 11074B   26115.77731796 -.00000057  00000+0  00000+0 0  9991
2 37951   8.6237  74.5624 0002713 302.6373 283.3454  1.00272711 52522
SES-5 (EGNOS/PRN 136)   
1 38652U 12036A   26115.92455955  .00000020  00000+0  00000+0 0  9995
2 38652   0.0594 300.5640 0001886  89.0990 162.0897  1.00272343 43934
GSAT-10 (GAGAN/PRN 128) 
1 38779U 12051B   26115.93586689 -.00000178  00000+0  00000+0 0  9997
2 38779   0.0255 263.7604 0006893 177.7644 192.3039  1.00270066 49572
LUCH 5B (SDCM/PRN 125)  
1 38977U 12061A   26115.63512328 -.00000146  00000+0  00000+0 0  9999
2 38977  10.3736  50.3947 0001856 213.6172 162.0087  1.00271530 49080
ASTRA 5B (EGNOS/PRN 123)
1 39617U 14011B   26115.94697694  .00000123  00000+0  00000+0 0  9996
2 39617   0.0692 306.5121 0002682  64.7886 207.0682  1.00269219 44148
LUCH 5V (SDCM/PRN 141)  
1 39727U 14023A   26115.94232630 -.00000279  00000+0  00000+0 0  9999
2 39727   5.0069  70.2551 0002190 337.8280 239.8689  1.00272066 43830
GSAT-15 (GAGAN/PRN 139) 
1 41028U 15065A   26115.96518654 -.00000271  00000+0  00000+0 0  9990
2 41028   0.0707 257.4227 0003681 143.4092 254.1198  1.00272175 38276
EUTELSAT 117 WEST B (W*)
1 41589U 16038B   26115.90037946 -.00000025  00000+0  00000+0 0  9994
2 41589   0.0060 101.7562 0000380 194.5803 124.7207  1.00271646 36131
SES-15 (WAAS/PRN 133)   
1 42709U 17026A   26115.68411983  .00000046  00000+0  00000+0 0  9991
2 42709   0.0249 331.2396 0000622  35.8861 323.6957  1.00270298  6906
QZS-2 (QZSS/PRN 194)    
1 42738U 17028A   26115.64588200 -.00000262  00000+0  00000+0 0  9999
2 42738  39.5105 243.9205 0740382 270.7988  69.6269  1.00247691  7093
QZS-3 (QZSS/PRN 199)    
1 42917U 17048A   26115.94873966 -.00000361  00000+0  00000+0 0  9999
2 42917   0.0510 184.4452 0001336 196.1646 301.9308  1.00271304 31731
QZS-4 (QZSS/PRN 195)    
1 42965U 17062A   26112.66690654 -.00000326  00000+0  00000+0 0  9996
2 42965  40.1416 344.1915 0746625 270.8161 335.9811  1.00266456 31246
BEIDOU-3 G1 (PRN 130)   
1 43683U 18085A   26115.88399939 -.00000121  00000+0  00000+0 0  9992
2 43683   2.9434  98.7599 0007316 333.2042 260.1198  1.00265388 27536
EUTELSAT 5 WEST B (EGN*)
1 44624U 19067A   26115.92265288 -.00000056  00000+0  00000+0 0  9990
2 44624   0.0689   8.7741 0003140  25.4592 146.8476  1.00271275 23913
BEIDOU-3 G2 (PRN 144)   
1 45344U 20017A   26115.72554666 -.00000152  00000+0  00000+0 0  9993
2 45344   2.7608  46.5062 0002481 346.6079 161.8621  1.00271445 22731
