[{"OBJECT_NAME":"INMARSAT 4-F2 (SOUTHPAN/PRN 122)","OBJECT_ID":"2005-044A","EPOCH":"2026-04-25T18:43:38.676864","MEAN_MOTION":1.00272238,"ECCENTRICITY":0.00027036,"INCLINATION":5.0292,"RA_OF_ASC_NODE":43.758,"ARG_OF_PERICENTER":347.7503,"MEAN_ANOMALY":246.6499,"EPHEMERIS_TYPE":0,"CLASSIFICATION_TYPE":"U","NORAD_CAT_ID":28899,"ELEMENT_SET_NO":999,"REV_AT_EPOCH":7499,"BSTAR":0,"MEAN_MOTION_DOT":-2.71e-6,"MEAN_MOTION_DDOT":0},{"OBJECT_NAME":"GSAT-8 (GAGAN/PRN 127)","OBJECT_ID":"2011-022A","EPOCH":"2026-04-25T20:43:00.418656","MEAN_MOTION":1.00271626,"ECCENTRICITY":0.00048482,"INCLINATION":1.9978,"RA_OF_ASC_NODE":82.4264,"ARG_OF_PERICENTER":225.9609,"MEAN_ANOMALY":271.3148,"EPHEMERIS_TYPE":0,"CLASSIFICATION_TYPE":"U","NORAD_CAT_ID":37605,"ELEMENT_SET_NO":999,"REV_AT_EPOCH":5269,"BSTAR":0,"MEAN_MOTION_DOT":7.3e-7,"MEAN_MOTION_DDOT":0},{"OBJECT_NAME":"LUCH 5A (SDCM/PRN 140)","OBJECT_ID":"2011-074B","EPOCH":"2026-04-25T18:39:20.271744","MEAN_MOTION":1.00272711,"ECCENTRICITY":0.00027138,"INCLINATION":8.6237,"RA_OF_ASC_NODE":74.5624,"ARG_OF_PERICENTER":302.6373,"MEAN_ANOMALY":283.3454,"EPHEMERIS_TYPE":0,"CLASSIFICATION_TYPE":"U","NORAD_CAT_ID":37951,"ELEMENT_SET_NO":999,"REV_AT_EPOCH":5252,"BSTAR":0,"MEAN_MOTION_DOT":-5.7e-7,"MEAN_MOTION_DDOT":0},{"OBJECT_NAME":"SES-5 (EGNOS/PRN 136)","OBJECT_ID":"2012-036A","EPOCH":"2026-04-25T22:11:21.945120","MEAN_MOTION":1.00272343,"ECCENTRICITY":0.00018863,"INCLINATION":0.0594,"RA_OF_ASC_NODE":300.564,"ARG_OF_PERICENTER":89.099,"MEAN_ANOMALY":162.0897,"EPHEMERIS_TYPE":0,"CLASSIFICATION_TYPE":"U","NORAD_CAT_ID":38652,"ELEMENT_SET_NO":999,"REV_AT_EPOCH":4393,"BSTAR":0,"MEAN_MOTION_DOT":2.0e-7,"MEAN_MOTION_DDOT":0},{"OBJECT_NAME":"GSAT-10 (GAGAN/PRN 128)","OBJECT_ID":"2012-051B","EPOCH":"2026-04-25T22:27:38.899296","MEAN_MOTION":1.00270066,"ECCENTRICITY":0.00068933,"INCLINATION":0.0255,"RA_OF_ASC_NODE":263.7604,"ARG_OF_PERICENTER":177.7644,"MEAN_ANOMALY":192.3039,"EPHEMERIS_TYPE":0,"CLASSIFICATION_TYPE":"U","NORAD_CAT_ID":38779,"ELEMENT_SET_NO":999,"REV_AT_EPOCH":4957,"BSTAR":0,"MEAN_MOTION_DOT":-1.78e-6,"MEAN_MOTION_DDOT":0},{"OBJECT_NAME":"LUCH 5B (SDCM/PRN 125)","OBJECT_ID":"2012-061A","EPOCH":"2026-04-25T15:14:34.651392","MEAN_MOTION":1.0027153,"ECCENTRICITY":0.00018562,"INCLINATION":10.3736,"RA_OF_ASC_NODE":50.3947,"ARG_OF_PERICENTER":213.6172,"MEAN_ANOMALY":162.0087,"EPHEMERIS_TYPE":0,"CLASSIFICATION_TYPE":"U","NORAD_CAT_ID":38977,"ELEMENT_SET_NO":999,"REV_AT_EPOCH":4908,"BSTAR":0,"MEAN_MOTION_DOT":-1.46e-6,"MEAN_MOTION_DDOT":0},{"OBJECT_NAME":"ASTRA 5B (EGNOS/PRN 123)","OBJECT_ID":"2014-011B","EPOCH":"2026-04-25T22:43:38.807616","MEAN_MOTION":1.00269219,"ECCENTRICITY":0.00026829,"INCLINATION":0.0692,"RA_OF_ASC_NODE":306.5121,"ARG_OF_PERICENTER":64.7886,"MEAN_ANOMALY":207.0682,"EPHEMERIS_TYPE":0,"CLASSIFICATION_TYPE":"U","NORAD_CAT_ID":39617,"ELEMENT_SET_NO":999,"REV_AT_EPOCH":4414,"BSTAR":0,"MEAN_MOTION_DOT":1.23e-6,"MEAN_MOTION_DDOT":0},{"OBJECT_NAME":"LUCH 5V (SDCM/PRN 141)","OBJECT_ID":"2014-023A","EPOCH":"2026-04-25T22:36:56.992320","MEAN_MOTION":1.00272066,"ECCENTRICITY":0.00021901,"INCLINATION":5.0069,"RA_OF_ASC_NODE":70.2551,"ARG_OF_PERICENTER":337.828,"MEAN_ANOMALY":239.8689,"EPHEMERIS_TYPE":0,"CLASSIFICATION_TYPE":"U","NORAD_CAT_ID":39727,"ELEMENT_SET_NO":999,"REV_AT_EPOCH":4383,"BSTAR":0,"MEAN_MOTION_DOT":-2.79e-6,"MEAN_MOTION_DDOT":0},{"OBJECT_NAME":"GSAT-15 (GAGAN/PRN 139)","OBJECT_ID":"2015-065A","EPOCH":"2026-04-25T23:09:52.117056","MEAN_MOTION":1.00272175,"ECCENTRICITY":0.00036811,"INCLINATION":0.0707,"RA_OF_ASC_NODE":257.4227,"ARG_OF_PERICENTER":143.4092,"MEAN_ANOMALY":254.1198,"EPHEMERIS_TYPE":0,"CLASSIFICATION_TYPE":"U","NORAD_CAT_ID":41028,"ELEMENT_SET_NO":999,"REV_AT_EPOCH":3827,"BSTAR":0,"MEAN_MOTION_DOT":-2.71e-6,"MEAN_MOTION_DDOT":0},{"OBJECT_NAME":"EUTELSAT 117 WEST B (WAAS/PRN 131)","OBJECT_ID":"2016-038B","EPOCH":"2026-04-25T21:36:32.785344","MEAN_MOTION":1.00271646,"ECCENTRICITY":3.807e-5,"INCLINATION":0.006,"RA_OF_ASC_NODE":101.7562,"ARG_OF_PERICENTER":194.5803,"MEAN_ANOMALY":124.7207,"EPHEMERIS_TYPE":0,"CLASSIFICATION_TYPE":"U","NORAD_CAT_ID":41589,"ELEMENT_SET_NO":999,"REV_AT_EPOCH":3613,"BSTAR":0,"MEAN_MOTION_DOT":-2.5e-7,"MEAN_MOTION_DDOT":0},{"OBJECT_NAME":"SES-15 (WAAS/PRN 133)","OBJECT_ID":"2017-026A","EPOCH":"2026-04-25T16:25:07.953312","MEAN_MOTION":1.00270298,"ECCENTRICITY":6.229e-5,"INCLINATION":0.0249,"RA_OF_ASC_NODE":331.2396,"ARG_OF_PERICENTER":35.8861,"MEAN_ANOMALY":323.6957,"EPHEMERIS_TYPE":0,"CLASSIFICATION_TYPE":"U","NORAD_CAT_ID":42709,"ELEMENT_SET_NO":999,"REV_AT_EPOCH":690,"BSTAR":0,"MEAN_MOTION_DOT":4.6e-7,"MEAN_MOTION_DDOT":0},{"OBJECT_NAME":"QZS-2 (QZSS/PRN 194)","OBJECT_ID":"2017-028A","EPOCH":"2026-04-25T15:30:04.204800","MEAN_MOTION":1.00247691,"ECCENTRICITY":0.07403825,"INCLINATION":39.5105,"RA_OF_ASC_NODE":243.9205,"ARG_OF_PERICENTER":270.7988,"MEAN_ANOMALY":69.6269,"EPHEMERIS_TYPE":0,"CLASSIFICATION_TYPE":"U","NORAD_CAT_ID":42738,"ELEMENT_SET_NO":999,"REV_AT_EPOCH":709,"BSTAR":0,"MEAN_MOTION_DOT":-2.62e-6,"MEAN_MOTION_DDOT":0},{"OBJECT_NAME":"QZS-3 (QZSS/PRN 199)","OBJECT_ID":"2017-048A","EPOCH":"2026-04-25T22:46:11.106624","MEAN_MOTION":1.00271304,"ECCENTRICITY":0.00013367,"INCLINATION":0.051,"RA_OF_ASC_NODE":184.4452,"ARG_OF_PERICENTER":196.1646,"MEAN_ANOMALY":301.9308,"EPHEMERIS_TYPE":0,"CLASSIFICATION_TYPE":"U","NORAD_CAT_ID":42917,"ELEMENT_SET_NO":999,"REV_AT_EPOCH":3173,"BSTAR":0,"MEAN_MOTION_DOT":-3.61e-6,"MEAN_MOTION_DDOT":0},{"OBJECT_NAME":"QZS-4 (QZSS/PRN 195)","OBJECT_ID":"2017-062A","EPOCH":"2026-04-22T16:00:20.725056","MEAN_MOTION":1.00266456,"ECCENTRICITY":0.07466255,"INCLINATION":40.1416,"RA_OF_ASC_NODE":344.1915,"ARG_OF_PERICENTER":270.8161,"MEAN_ANOMALY":335.9811,"EPHEMERIS_TYPE":0,"CLASSIFICATION_TYPE":"U","NORAD_CAT_ID":42965,"ELEMENT_SET_NO":999,"REV_AT_EPOCH":3124,"BSTAR":0,"MEAN_MOTION_DOT":-3.26e-6,"MEAN_MOTION_DDOT":0},{"OBJECT_NAME":"BEIDOU-3 G1 (PRN 130)","OBJECT_ID":"2018-085A","EPOCH":"2026-04-25T21:12:57.547296","MEAN_MOTION":1.00265388,"ECCENTRICITY":0.00073161,"INCLINATION":2.9434,"RA_OF_ASC_NODE":98.7599,"ARG_OF_PERICENTER":333.2042,"MEAN_ANOMALY":260.1198,"EPHEMERIS_TYPE":0,"CLASSIFICATION_TYPE":"U","NORAD_CAT_ID":43683,"ELEMENT_SET_NO":999,"REV_AT_EPOCH":2753,"BSTAR":0,"MEAN_MOTION_DOT":-1.21e-6,"MEAN_MOTION_DDOT":0},{"OBJECT_NAME":"EUTELSAT 5 WEST B (EGNOS/PRN 121)","OBJECT_ID":"2019-067A","EPOCH":"2026-04-25T22:08:37.208832","MEAN_MOTION":1.00271275,"ECCENTRICITY":0.00031402,"INCLINATION":0.0689,"RA_OF_ASC_NODE":8.7741,"ARG_OF_PERICENTER":25.4592,"MEAN_ANOMALY":146.8476,"EPHEMERIS_TYPE":0,"CLASSIFICATION_TYPE":"U","NORAD_CAT_ID":44624,"ELEMENT_SET_NO":999,"REV_AT_EPOCH":2391,"BSTAR":0,"MEAN_MOTION_DOT":-5.6e-7,"MEAN_MOTION_DDOT":0},{"OBJECT_NAME":"BEIDOU-3 G2 (PRN 144)","OBJECT_ID":"2020-017A","EPOCH":"2026-04-25T17:24:47.231424","MEAN_MOTION":1.00271445,"ECCENTRICITY":0.00024815,"INCLINATION":2.7608,"RA_OF_ASC_NODE":46.5062,"ARG_OF_PERICENTER":346.6079,"MEAN_ANOMALY":161.8621,"EPHEMERIS_TYPE":0,"CLASSIFICATION_TYPE":"U","NORAD_CAT_ID":45344,"ELEMENT_SET_NO":999,"REV_AT_EPOCH":2273,"BSTAR":0,"MEAN_MOTION_DOT":-1.52e-6,"MEAN_MOTION_DDOT":0}]
